IRIDIUM 119             
1 42959U 17061E   25353.82160620  .00000227  00000+0  74026-4 0  9990
2 42959  86.3971 100.2560 0001848  98.7717 261.3688 14.34218399429103
IRIDIUM 107             
1 42960U 17061F   25353.70109578  .00000184  00000+0  58670-4 0  9993
2 42960  86.3974 100.3267 0002175 107.2433 252.9001 14.34218726429095
IRIDIUM 132             
1 42961U 17061G   25353.84697656  .00000181  00000+0  57457-4 0  9997
2 42961  86.3972 100.2465 0002098 100.1563 259.9869 14.34217330429115
IRIDIUM 136             
1 42962U 17061H   25353.59961427  .00000177  00000+0  56110-4 0  9990
2 42962  86.3971 100.3556 0001961  99.6028 260.5389 14.34218467429097
IRIDIUM 139             
1 42963U 17061J   25353.81526365  .00000192  00000+0  61367-4 0  9991
2 42963  86.3974 100.3246 0002137 100.2471 259.8966 14.34218336429136
IRIDIUM 125             
1 42964U 17061K   25353.38395466  .00000235  00000+0  76775-4 0  9997
2 42964  86.3973 100.5625 0001830 112.3151 247.8239 14.34214408429087
IRIDIUM 135             
1 43070U 17083A   25353.21855471  .00000222  00000+0  72382-4 0  9995
2 43070  86.3962  37.2354 0002162  93.1543 266.9900 14.34216372418356
IRIDIUM 138             
1 43071U 17083B   25353.94161001  .00000043  00000+0  84335-5 0  9998
2 43071  86.3974  36.6007 0001780  96.1280 264.0119 14.34217975418445
